1 14129U 83058B   03257.77952378 -.00000078  00000-0  10000-3 0  9615
2 14129  26.3175 130.9202 5974960  25.1074 354.9693  2.05867055124351
1 14129U 83058B   03258.75095084 -.00000071  00000-0  10000-3 0  9620
2 14129  26.3173 130.7577 5975385  25.3825 354.9018  2.05866993124373
1 14129U 83058B   03259.72238153 -.00000072  00000-0  10000-3 0  9636
2 14129  26.3181 130.6038 5975071  25.6411 354.8460  2.05867071124399
1 14129U 83058B   03260.69380249 -.00000078  00000-0  10000-3 0  9645
2 14129  26.3189 130.4503 5975021  25.9014 354.7801  2.05867208124412
1 14129U 83058B   03261.66522988 -.00000089  00000-0  10000-3 0  9632
2 14129  26.3195 130.2973 5974687  26.1607 354.7231  2.05867451124435
1 14129U 83058B   03265.06525258 -.00000148  00000-0  10000-3 0  9640
2 14129  26.3223 129.7582 5974698  27.0721 354.5381  2.05868478124507
1 14129U 83058B   03265.06525444 -.00000148  00000-0  10000-3 0  9658
2 14129  26.3223 129.7582 5974698  27.0721 354.5394  2.05868478124501
1 14129U 83058B   03266.03670007 -.00000166  00000-0  10000-3 0  9663
2 14129  26.3231 129.6047 5974659  27.3324 354.4971  2.05868753124522
1 14129U 83058B   03268.95102795 -.00000200  00000-0  10000-3 0  9658
2 14129  26.3226 129.1328 5972149  28.1430 354.3805  2.05869496124588
1 14129U 83058B   03272.83665620 -.00000166  00000-0  10000-3 0  9663
2 14129  26.3273 128.5202 5971510  29.1966 354.0807  2.05867961124663
1 14129U 83058B   03275.75092425 -.00000091  00000-0  10000-3 0  9683
2 14129  26.3280 128.0393 5971737  29.9798 353.8801  2.05866564124725
1 14129U 83058B   03275.75094894  .00000000  00000-0  10000-3 0  9673
2 14129  26.3367 128.0019 5971544  30.0112 353.9017  2.05864512124726
1 14129U 83058B   03276.72237241 -.00000062  00000-0  10000-3 0  9697
2 14129  26.3293 127.8843 5971962  30.2416 353.8314  2.05866431124742
1 14129U 83058B   03277.69381757 -.00000035  00000-0  10000-3 0  9708
2 14129  26.3253 127.7346 5971638  30.4948 353.7866  2.05866584124769
1 14129U 83058B   03278.66525998 -.00000012  00000-0  10000-3 0  9696
2 14129  26.3240 127.5704 5971482  30.7724 353.7325  2.05866727124784
1 14129U 83058B   03279.63670785 -.00000000  00000-0  10000-3 0  9708
2 14129  26.3267 127.4195 5971416  31.0338 353.6850  2.05867085124801
1 14129U 83058B   03284.00816460 -.00000114  00000-0  10000-3 0  9703
2 14129  26.3319 126.7385 5971685  32.2110 353.4413  2.05868594124899
1 14129U 83058B   03285.95098904 -.00000207  00000-0  10000-3 0  9717
2 14129  26.3309 126.4202 5971245  32.7226 353.3114  2.05868911124933
1 14129U 83058B   03287.89379748 -.00000251  00000-0  10000-3 0  9731
2 14129  26.3308 126.1102 5971314  33.2443 353.1688  2.05868885124970
1 14129U 83058B   03288.86520289 -.00000241  00000-0  10000-3 0  9725
2 14129  26.3322 125.9592 5971298  33.5019 353.0982  2.05868677124996
1 14129U 83058B   03292.75090609 -.00000030  00000-0  10000-3 0  9733
2 14129  26.3335 125.3420 5971449  34.5285 352.8628  2.05867071125079
1 14129U 83058B   03294.69379440  .00000088  00000-0  10000-3 0  9744
2 14129  26.3328 125.0281 5971229  35.0534 352.7777  2.05867142125110
1 14129U 83058B   03296.63664291  .00000140  00000-0  10000-3 0  9762
2 14129  26.3338 124.7236 5970699  35.5863 352.6466  2.05867154125158
1 14129U 83058B   03296.63667378  .00000000  00000-0  10000-3 0  9755
2 14129  26.3423 124.7036 5972473  35.5310 352.6837  2.05865065125151
1 14129U 83058B   03297.60806397  .00000131  00000-0  10000-3 0  9776
2 14129  26.3348 124.5657 5969615  35.8907 352.5724  2.05867319125173
1 14129U 83058B   03298.57946782  .00000100  00000-0  10000-3 0  9783
2 14129  26.3352 124.4352 5969952  36.1283 352.4924  2.05867581125198
1 14129U 83058B   03299.55088072  .00000051  00000-0  10000-3 0  9797
2 14129  26.3359 124.2796 5970856  36.3752 352.4220  2.05867902125212
1 14129U 83058B   03304.89360004 -.00000220  00000-0  10000-3 0  9800
2 14129  26.3426 123.4574 5971157  37.7796 352.0201  2.05869437125322
1 14129U 83058B   03305.86503529 -.00000218  00000-0  10000-3 0  9817
2 14129  26.3436 123.2158 5977276  37.9305 351.9723  2.05868609125344
1 14129U 83058B   03307.80795840 -.00000158  00000-0  10000-3 0  9826
2 14129  26.3429 122.9207 5976916  38.4468 351.9084  2.05868062125380
1 14129U 83058B   03310.72223154  .00000000  00000-0  10000-3 0  9831
2 14129  26.3573 122.5397 5971752  39.2975 351.7086  2.05864640125446
1 14129U 83058B   03310.72223284 -.00000005  00000-0  10000-3 0  9842
2 14129  26.3500 122.4857 5980524  39.0531 351.7514  2.05866789125441
1 14129U 83058B   03313.63650038  .00000099  00000-0  10000-3 0  9859
2 14129  26.3462 122.0278 5973420  40.0969 351.5228  2.05866352125508
1 14129U 83058B   03314.60782359  .00000108  00000-0  10000-3 0  9872
2 14129  26.3474 121.8762 5973512  40.3517 351.3835  2.05866384125529
1 14129U 83058B   03316.55063836  .00000092  00000-0  10000-3 0  9861
2 14129  26.3479 121.5666 5973751  40.8706 351.2298  2.05866879125569
1 14129U 83058B   03317.52204991  .00000071  00000-0  10000-3 0  9876
2 14129  26.3480 121.4100 5974051  41.1207 351.1626  2.05867298125589
1 14129U 83058B   03318.49346342  .00000044  00000-0  10000-3 0  9881
2 14129  26.3473 121.2719 5972526  41.4163 351.0891  2.05867775125600
1 14129U 83058B   03319.46486990  .00000012  00000-0  10000-3 0  9899
2 14129  26.3477 121.1302 5971976  41.6841 351.0151  2.05868244125627
1 14129U 83058B   03322.37913472 -.00000082  00000-0  10000-3 0  9903
2 14129  26.3500 120.6846 5971859  42.4470 350.8403  2.05869264125684
1 14129U 83058B   03323.83625721 -.00000116  00000-0  10000-3 0  9922
2 14129  26.3473 120.4650 5971588  42.8164 350.7489  2.05869367125718
1 14129U 83058B   03324.80766273 -.00000129  00000-0  10000-3 0  9922
2 14129  26.3469 120.3112 5971623  43.0775 350.6785  2.05869255125732
1 14129U 83058B   03325.77905798 -.00000132  00000-0  10000-3 0  9931
2 14129  26.3472 120.1571 5971700  43.3378 350.6007  2.05868993125758
1 14129U 83058B   03331.60743422  .00000064  00000-0  10000-3 0  9926
2 14129  26.3489 119.2355 5971767  44.9160 350.0984  2.05866302125877
1 14129U 83058B   03332.57886428  .00000108  00000-0  10000-3 0  9937
2 14129  26.3483 119.0803 5971761  45.1686 350.0376  2.05866188125896
1 14129U 83058B   03333.55029705  .00000141  00000-0  10000-3 0  9941
2 14129  26.3477 118.9258 5971736  45.4252 349.9773  2.05866248125913
1 14129U 83058B   03334.52173142  .00000156  00000-0  10000-3 0  9951
2 14129  26.3466 118.7713 5971584  45.6994 349.9057  2.05866362125935
1 14129U 83058B   03334.52174350  .00000156  00000-0  10000-3 0  9964
2 14129  26.3466 118.7713 5971584  45.6994 349.9147  2.05866362125935
1 14129U 83058B   03335.49317362  .00000151  00000-0  10000-3 0  9946
2 14129  26.3464 118.6171 5971598  45.9571 349.8542  2.05866738125956
1 14129U 83058B   03336.46459685  .00000125  00000-0  10000-3 0  9951
2 14129  26.3467 118.4629 5971694  46.2175 349.7896  2.05867204125978
1 14129U 83058B   03337.43601138  .00000079  00000-0  10000-3 0  9960
2 14129  26.3470 118.3086 5971790  46.4780 349.7203  2.05867705125999
1 14129U 83058B   03338.40741660  .00000019  00000-0  10000-3 0  9956
2 14129  26.3454 118.1553 5972319  46.7288 349.6426  2.05868136126011
1 14129U 83058B   03343.75007532 -.00000242  00000-0  10000-3 0  9963
2 14129  26.3467 117.3063 5973029  48.1605 349.1994  2.05868950126121
1 14129U 83058B   03344.72147736 -.00000224  00000-0  10000-3 0  9973
2 14129  26.3469 117.1513 5973192  48.4196 349.1270  2.05868608126149